[{"OBJECT_NAME":"SL-8 R/B","OBJECT_ID":"1979-089B","EPOCH":"2026-03-04T19:42:13.077216","MEAN_MOTION":14.42347002,"ECCENTRICITY":0.0017129,"INCLINATION":74.0673,"RA_OF_ASC_NODE":100.0574,"ARG_OF_PERICENTER":273.2164,"MEAN_ANOMALY":86.7032,"EPHEMERIS_TYPE":0,"CLASSIFICATION_TYPE":"U","NORAD_CAT_ID":11574,"ELEMENT_SET_NO":999,"REV_AT_EPOCH":43540,"BSTAR":0.00011705,"MEAN_MOTION_DOT":3.61e-6,"MEAN_MOTION_DDOT":0},{"OBJECT_NAME":"SL-14 R/B","OBJECT_ID":"1980-005B","EPOCH":"2026-03-04T03:46:20.833248","MEAN_MOTION":14.90922933,"ECCENTRICITY":0.00156948,"INCLINATION":82.5155,"RA_OF_ASC_NODE":312.4838,"ARG_OF_PERICENTER":176.3105,"MEAN_ANOMALY":183.8233,"EPHEMERIS_TYPE":0,"CLASSIFICATION_TYPE":"U","NORAD_CAT_ID":11672,"ELEMENT_SET_NO":999,"REV_AT_EPOCH":47566,"BSTAR":7.7036609e-5,"MEAN_MOTION_DOT":7.87e-6,"MEAN_MOTION_DDOT":0},{"OBJECT_NAME":"SL-8 R/B","OBJECT_ID":"1981-003B","EPOCH":"2026-03-04T13:40:24.438720","MEAN_MOTION":15.10736035,"ECCENTRICITY":0.0262687,"INCLINATION":82.9388,"RA_OF_ASC_NODE":294.7589,"ARG_OF_PERICENTER":196.4181,"MEAN_ANOMALY":162.8428,"EPHEMERIS_TYPE":0,"CLASSIFICATION_TYPE":"U","NORAD_CAT_ID":12139,"ELEMENT_SET_NO":999,"REV_AT_EPOCH":31390,"BSTAR":0.00057655,"MEAN_MOTION_DOT":0.00022352,"MEAN_MOTION_DDOT":0},{"OBJECT_NAME":"SL-3 R/B","OBJECT_ID":"1981-046B","EPOCH":"2026-03-04T18:54:05.704128","MEAN_MOTION":15.41845116,"ECCENTRICITY":0.0019966,"INCLINATION":81.2305,"RA_OF_ASC_NODE":295.631,"ARG_OF_PERICENTER":38.9839,"MEAN_ANOMALY":321.2838,"EPHEMERIS_TYPE":0,"CLASSIFICATION_TYPE":"U","NORAD_CAT_ID":12465,"ELEMENT_SET_NO":999,"REV_AT_EPOCH":43767,"BSTAR":0.00039107,"MEAN_MOTION_DOT":0.00016743,"MEAN_MOTION_DDOT":0},{"OBJECT_NAME":"SL-3 R/B","OBJECT_ID":"1981-103B","EPOCH":"2026-03-04T20:08:44.625696","MEAN_MOTION":15.21305102,"ECCENTRICITY":0.0012471,"INCLINATION":81.1577,"RA_OF_ASC_NODE":219.1213,"ARG_OF_PERICENTER":304.2939,"MEAN_ANOMALY":55.7111,"EPHEMERIS_TYPE":0,"CLASSIFICATION_TYPE":"U","NORAD_CAT_ID":12904,"ELEMENT_SET_NO":999,"REV_AT_EPOCH":97249,"BSTAR":0.00039501,"MEAN_MOTION_DOT":8.88e-5,"MEAN_MOTION_DDOT":0},{"OBJECT_NAME":"SL-3 R/B","OBJECT_ID":"1982-013B","EPOCH":"2026-03-04T18:48:37.518912","MEAN_MOTION":15.21954524,"ECCENTRICITY":0.0022342,"INCLINATION":81.1768,"RA_OF_ASC_NODE":166.5191,"ARG_OF_PERICENTER":193.956,"MEAN_ANOMALY":166.1057,"EPHEMERIS_TYPE":0,"CLASSIFICATION_TYPE":"U","NORAD_CAT_ID":13068,"ELEMENT_SET_NO":999,"REV_AT_EPOCH":40360,"BSTAR":0.00026192,"MEAN_MOTION_DOT":6.037e-5,"MEAN_MOTION_DDOT":0},{"OBJECT_NAME":"SL-3 R/B","OBJECT_ID":"1982-039B","EPOCH":"2026-03-04T18:04:52.578912","MEAN_MOTION":15.10046324,"ECCENTRICITY":0.0029857,"INCLINATION":81.1582,"RA_OF_ASC_NODE":221.6528,"ARG_OF_PERICENTER":340.563,"MEAN_ANOMALY":19.4453,"EPHEMERIS_TYPE":0,"CLASSIFICATION_TYPE":"U","NORAD_CAT_ID":13154,"ELEMENT_SET_NO":999,"REV_AT_EPOCH":38089,"BSTAR":0.00024042,"MEAN_MOTION_DOT":3.974e-5,"MEAN_MOTION_DDOT":0},{"OBJECT_NAME":"SL-3 R/B","OBJECT_ID":"1982-079B","EPOCH":"2026-03-04T19:27:18.997920","MEAN_MOTION":15.24710584,"ECCENTRICITY":0.0024842,"INCLINATION":81.1476,"RA_OF_ASC_NODE":198.8368,"ARG_OF_PERICENTER":181.1304,"MEAN_ANOMALY":178.9878,"EPHEMERIS_TYPE":0,"CLASSIFICATION_TYPE":"U","NORAD_CAT_ID":13403,"ELEMENT_SET_NO":999,"REV_AT_EPOCH":37695,"BSTAR":0.00035641,"MEAN_MOTION_DOT":8.921e-5,"MEAN_MOTION_DDOT":0},{"OBJECT_NAME":"SL-14 R/B","OBJECT_ID":"1982-092B","EPOCH":"2026-03-04T07:51:51.202080","MEAN_MOTION":14.86660511,"ECCENTRICITY":0.00193347,"INCLINATION":82.5703,"RA_OF_ASC_NODE":146.4141,"ARG_OF_PERICENTER":322.4519,"MEAN_ANOMALY":105.903,"EPHEMERIS_TYPE":0,"CLASSIFICATION_TYPE":"U","NORAD_CAT_ID":13553,"ELEMENT_SET_NO":999,"REV_AT_EPOCH":32813,"BSTAR":7.7682802e-5,"MEAN_MOTION_DOT":7.16e-6,"MEAN_MOTION_DDOT":0},{"OBJECT_NAME":"SL-3 R/B","OBJECT_ID":"1983-010B","EPOCH":"2026-03-04T07:48:04.419360","MEAN_MOTION":15.46126696,"ECCENTRICITY":0.00183876,"INCLINATION":81.1063,"RA_OF_ASC_NODE":8.8216,"ARG_OF_PERICENTER":68.0841,"MEAN_ANOMALY":292.2356,"EPHEMERIS_TYPE":0,"CLASSIFICATION_TYPE":"U","NORAD_CAT_ID":13819,"ELEMENT_SET_NO":999,"REV_AT_EPOCH":35711,"BSTAR":0.0005368276,"MEAN_MOTION_DOT":0.00026546,"MEAN_MOTION_DDOT":0},{"OBJECT_NAME":"SL-3 R/B","OBJECT_ID":"1983-075B","EPOCH":"2026-03-04T17:50:41.025696","MEAN_MOTION":15.38274615,"ECCENTRICITY":0.001977,"INCLINATION":97.6135,"RA_OF_ASC_NODE":68.1335,"ARG_OF_PERICENTER":245.2126,"MEAN_ANOMALY":114.7062,"EPHEMERIS_TYPE":0,"CLASSIFICATION_TYPE":"U","NORAD_CAT_ID":14208,"ELEMENT_SET_NO":999,"REV_AT_EPOCH":32939,"BSTAR":0.00042043,"MEAN_MOTION_DOT":0.00015887,"MEAN_MOTION_DDOT":0},{"OBJECT_NAME":"COSMOS 1536","OBJECT_ID":"1984-013A","EPOCH":"2026-03-04T04:53:27.893184","MEAN_MOTION":15.23742162,"ECCENTRICITY":0.00127786,"INCLINATION":82.5437,"RA_OF_ASC_NODE":113.304,"ARG_OF_PERICENTER":304.9036,"MEAN_ANOMALY":55.1,"EPHEMERIS_TYPE":0,"CLASSIFICATION_TYPE":"U","NORAD_CAT_ID":14699,"ELEMENT_SET_NO":999,"REV_AT_EPOCH":27178,"BSTAR":0.00039378718,"MEAN_MOTION_DOT":9.517e-5,"MEAN_MOTION_DDOT":0},{"OBJECT_NAME":"SL-14 R/B","OBJECT_ID":"1984-027B","EPOCH":"2026-03-04T12:11:44.804544","MEAN_MOTION":14.8597048,"ECCENTRICITY":0.00178087,"INCLINATION":82.5381,"RA_OF_ASC_NODE":249.8737,"ARG_OF_PERICENTER":355.5835,"MEAN_ANOMALY":4.5221,"EPHEMERIS_TYPE":0,"CLASSIFICATION_TYPE":"U","NORAD_CAT_ID":14820,"ELEMENT_SET_NO":999,"REV_AT_EPOCH":24686,"BSTAR":7.9469162e-5,"MEAN_MOTION_DOT":7.2e-6,"MEAN_MOTION_DDOT":0},{"OBJECT_NAME":"SL-8 R/B","OBJECT_ID":"1985-006B","EPOCH":"2026-03-04T20:20:12.310944","MEAN_MOTION":14.37778869,"ECCENTRICITY":0.0018646,"INCLINATION":74.0433,"RA_OF_ASC_NODE":270.0596,"ARG_OF_PERICENTER":188.9884,"MEAN_ANOMALY":182.4311,"EPHEMERIS_TYPE":0,"CLASSIFICATION_TYPE":"U","NORAD_CAT_ID":15483,"ELEMENT_SET_NO":999,"REV_AT_EPOCH":15333,"BSTAR":7.8164e-5,"MEAN_MOTION_DOT":2.1e-6,"MEAN_MOTION_DDOT":0},{"OBJECT_NAME":"SL-12 R/B(2)","OBJECT_ID":"1985-042D","EPOCH":"2026-03-04T11:55:51.592224","MEAN_MOTION":14.21980911,"ECCENTRICITY":0.00334751,"INCLINATION":71.1064,"RA_OF_ASC_NODE":98.7002,"ARG_OF_PERICENTER":136.6514,"MEAN_ANOMALY":328.1502,"EPHEMERIS_TYPE":0,"CLASSIFICATION_TYPE":"U","NORAD_CAT_ID":15772,"ELEMENT_SET_NO":999,"REV_AT_EPOCH":11365,"BSTAR":9.8859868e-5,"MEAN_MOTION_DOT":1.72e-6,"MEAN_MOTION_DDOT":0},{"OBJECT_NAME":"SL-14 R/B","OBJECT_ID":"1985-069B","EPOCH":"2026-03-04T08:38:13.176672","MEAN_MOTION":14.86426087,"ECCENTRICITY":0.0018004,"INCLINATION":82.5274,"RA_OF_ASC_NODE":29.9442,"ARG_OF_PERICENTER":205.8051,"MEAN_ANOMALY":154.227,"EPHEMERIS_TYPE":0,"CLASSIFICATION_TYPE":"U","NORAD_CAT_ID":15945,"ELEMENT_SET_NO":999,"REV_AT_EPOCH":17204,"BSTAR":8.8147227e-5,"MEAN_MOTION_DOT":8.04e-6,"MEAN_MOTION_DDOT":0},{"OBJECT_NAME":"SL-16 R/B","OBJECT_ID":"1985-097B","EPOCH":"2026-03-04T11:35:03.197760","MEAN_MOTION":14.16599758,"ECCENTRICITY":0.00099724,"INCLINATION":71.0036,"RA_OF_ASC_NODE":151.5159,"ARG_OF_PERICENTER":265.965,"MEAN_ANOMALY":174.8235,"EPHEMERIS_TYPE":0,"CLASSIFICATION_TYPE":"U","NORAD_CAT_ID":16182,"ELEMENT_SET_NO":999,"REV_AT_EPOCH":8649,"BSTAR":3.504613e-6,"MEAN_MOTION_DOT":-4.1e-7,"MEAN_MOTION_DDOT":0}]
